BEIDOU-3 M14            
1 43623U 18072B   26134.03606905 -.00000037  00000+0  00000+0 0  9990
2 43623  56.5980  63.7808 0006648 347.7176  12.2477  1.86231503 52014
BEIDOU-3 M16            
1 43647U 18078A   26136.33972034 -.00000054  00000+0  00000+0 0  9995
2 43647  54.1200 301.1019 0007832  39.9569 320.0752  1.86232180 51561
BEIDOU-3 M15            
1 43648U 18078B   26134.85818057 -.00000051  00000+0  00000+0 0  9992
2 43648  54.1176 301.1547 0004943  52.6427 307.3818  1.86232411 51552
BEIDOU-3 G1             
1 43683U 18085A   26137.13121650 -.00000100  00000+0  00000+0 0  9994
2 43683   2.7887  98.2398 0007872 340.8187   2.9895  1.00271518 27740
BEIDOU-3 M17            
1 43706U 18093A   26137.16954243  .00000085  00000+0  00000+0 0  9995
2 43706  54.1670 183.3489 0009701 290.7697  70.9293  1.86228297 50963
BEIDOU-3 M18            
1 43707U 18093B   26137.03010742  .00000087  00000+0  00000+0 0  9991
2 43707  54.1678 183.3460 0007453 321.6467  38.3939  1.86226368 50953
BEIDOU-3 IGSO-1         
1 44204U 19023A   26132.76772565 -.00000227  00000+0  00000+0 0  9998
2 44204  58.6468  38.0171 0023856 234.3090 349.8662  1.00250503  6851
BEIDOU-2 G8             
1 44231U 19027A   26136.91422977 -.00000238  00000+0  00000+0 0  9994
2 44231   1.5782  74.4336 0010733 280.6630 353.1872  1.00271538 25761
BEIDOU-3 IGSO-2         
1 44337U 19035A   26132.65390358 -.00000046  00000+0  00000+0 0  9991
2 44337  55.2385 159.1745 0039680 215.7907 210.7620  1.00277740 25317
BEIDOU-3 M24            
1 44542U 19061A   26137.09914734  .00000086  00000+0  00000+0 0  9994
2 44542  54.3946 183.7768 0008065   2.5700 357.5278  1.86229147 45214
BEIDOU-3 M23            
1 44543U 19061B   26136.15878090  .00000095  00000+0  00000+0 0  9995
2 44543  54.3933 183.7769 0005262 341.9051  19.5222  1.86227232 45203
BEIDOU-3 IGSO-3         
1 44709U 19073A   26120.85038409 -.00000212  00000+0  00000+0 0  9996
2 44709  54.8842 281.4069 0042404 188.8195 170.9972  1.00251230 23982
BEIDOU-3 M21            
1 44794U 19078B   26136.54150291 -.00000055  00000+0  00000+0 0  9997
2 44794  53.9390 300.9027 0004900  45.2623 314.7514  1.86227806 44064
BEIDOU-3 M19            
1 44864U 19090A   26134.37148076 -.00000039  00000+0  00000+0 0  9998
2 44864  56.5302  63.9086 0019040 296.9236 245.2774  1.86231675 43605
BEIDOU-3 M20            
1 44865U 19090B   26136.39480987 -.00000044  00000+0  00000+0 0  9999
2 44865  56.5338  63.8761 0016724 310.3790 237.9537  1.86231130 43629
BEIDOU-3 G2             
1 45344U 20017A   26137.11535644 -.00000133  00000+0  00000+0 0  9994
2 45344   2.8015  46.8448 0002336   9.0467 300.5100  1.00271662 22943
BEIDOU-3 G3             
1 45807U 20040A   26137.05010428 -.00000345  00000+0  00000+0 0  9990
2 45807   2.3704  67.3579 0003079 332.4467 323.5462  1.00272708 21754
BEIDOU-3 G4             
1 56564U 23066A   26137.19857841 -.00000273  00000+0  00000+0 0  9996
2 56564   0.5268 324.0875 0003511 174.2365 308.0907  1.00274520 11084
BEIDOU-3 M28            
1 58654U 23207A   26136.08172179 -.00000046  00000+0  00000+0 0  9994
2 58654  55.7257  63.3860 0004147 332.0936  27.8658  1.86229610 16243
BEIDOU-3 M26            
1 58655U 23207B   26136.95313677 -.00000046  00000+0  00000+0 0  9991
2 58655  55.7286  63.3431 0004280 311.2058  48.7410  1.86229592 16249
BEIDOU-3 M25            
1 61186U 24168B   26136.77334516 -.00000055  00000+0  00000+0 0  9996
2 61186  54.5026 303.3336 0003039 312.6101  44.0475  1.86229807 11195
BEIDOU-3 M27            
1 61187U 24168C   26136.57389728 -.00000055  00000+0  00000+0 0  9990
2 61187  54.4980 303.3235 0002214  45.5930 312.3649  1.86229905  8669
